{
  "type": "FeatureCollection",
  "features": [
    {
      "type": "Feature",
      "properties": {
        "norad_id": 44794,
        "name": "BEIDOU-3 M21 (C43)",
        "group": "beidou",
        "lat": 23.69686120363006,
        "lon": 107.42494621494137,
        "alt_km": 21534.318585857265,
        "timestamp": "2025-12-23T07:45:09.670020+00:00",
        "meta_object_name": "BEIDOU-3 M21 (C43)",
        "meta_object_id": "2019-078B",
        "meta_epoch": "2025-12-22T00:36:11.320992",
        "meta_mean_motion": 1.86227906,
        "meta_eccentricity": 0.00042988,
        "meta_inclination": 54.0732,
        "meta_ra_of_asc_node": 306.0255,
        "meta_arg_of_pericenter": 12.7951,
        "meta_mean_anomaly": 347.2162,
        "meta_ephemeris_type": 0,
        "meta_classification_type": "U",
        "meta_norad_cat_id": 44794,
        "meta_element_set_no": 999,
        "meta_rev_at_epoch": 4135,
        "meta_bstar": 0,
        "meta_mean_motion_dot": -5.8e-07,
        "meta_mean_motion_ddot": 0,
        "tle_line1": "1 44794U 19078B   25356.02513103 -.00000058  00000+0  00000+0 0  9991",
        "tle_line2": "2 44794  54.0732 306.0255 0004298  12.7951 347.2162  1.86227906 41359"
      },
      "geometry": {
        "type": "Point",
        "coordinates": [
          107.42494621494137,
          23.69686120363006
        ]
      }
    },
    {
      "type": "Feature",
      "properties": {
        "norad_id": 44864,
        "name": "BEIDOU-3 M19 (C41)",
        "group": "beidou",
        "lat": -11.496567371737308,
        "lon": 60.86968033153176,
        "alt_km": 21504.99239915876,
        "timestamp": "2025-12-23T07:45:09.670031+00:00",
        "meta_object_name": "BEIDOU-3 M19 (C41)",
        "meta_object_id": "2019-090A",
        "meta_epoch": "2025-12-22T08:14:48.901056",
        "meta_mean_motion": 1.86231645,
        "meta_eccentricity": 0.00183489,
        "meta_inclination": 56.4008,
        "meta_ra_of_asc_node": 68.6432,
        "meta_arg_of_pericenter": 285.1191,
        "meta_mean_anomaly": 124.2655,
        "meta_ephemeris_type": 0,
        "meta_classification_type": "U",
        "meta_norad_cat_id": 44864,
        "meta_element_set_no": 999,
        "meta_rev_at_epoch": 4094,
        "meta_bstar": 0,
        "meta_mean_motion_dot": -2.9e-07,
        "meta_mean_motion_ddot": 0,
        "tle_line1": "1 44864U 19090A   25356.34362154 -.00000029  00000+0  00000+0 0  9994",
        "tle_line2": "2 44864  56.4008  68.6432 0018348 285.1191 124.2655  1.86231645 40949"
      },
      "geometry": {
        "type": "Point",
        "coordinates": [
          60.86968033153176,
          -11.496567371737308
        ]
      }
    },
    {
      "type": "Feature",
      "properties": {
        "norad_id": 44865,
        "name": "BEIDOU-3 M20 (C42)",
        "group": "beidou",
        "lat": 53.84323944748916,
        "lon": 133.95845363811165,
        "alt_km": 21554.04956322976,
        "timestamp": "2025-12-23T07:45:09.670042+00:00",
        "meta_object_name": "BEIDOU-3 M20 (C42)",
        "meta_object_id": "2019-090B",
        "meta_epoch": "2025-12-22T16:05:30.934752",
        "meta_mean_motion": 1.86231578,
        "meta_eccentricity": 0.00154965,
        "meta_inclination": 56.4027,
        "meta_ra_of_asc_node": 68.6668,
        "meta_arg_of_pericenter": 297.2776,
        "meta_mean_anomaly": 60.8731,
        "meta_ephemeris_type": 0,
        "meta_classification_type": "U",
        "meta_norad_cat_id": 44865,
        "meta_element_set_no": 999,
        "meta_rev_at_epoch": 4092,
        "meta_bstar": 0,
        "meta_mean_motion_dot": -2.8e-07,
        "meta_mean_motion_ddot": 0,
        "tle_line1": "1 44865U 19090B   25356.67049693 -.00000028  00000+0  00000+0 0  9990",
        "tle_line2": "2 44865  56.4027  68.6668 0015496 297.2776  60.8731  1.86231578 40929"
      },
      "geometry": {
        "type": "Point",
        "coordinates": [
          133.95845363811165,
          53.84323944748916
        ]
      }
    },
    {
      "type": "Feature",
      "properties": {
        "norad_id": 45344,
        "name": "BEIDOU-3 G2 (C60)",
        "group": "beidou",
        "lat": -2.293773439098756,
        "lon": -71.57389487785828,
        "alt_km": 35777.45882128121,
        "timestamp": "2025-12-23T07:45:09.670053+00:00",
        "meta_object_name": "BEIDOU-3 G2 (C60)",
        "meta_object_id": "2020-017A",
        "meta_epoch": "2025-12-19T13:38:45.370752",
        "meta_mean_motion": 1.00273166,
        "meta_eccentricity": 0.0002079,
        "meta_inclination": 2.5096,
        "meta_ra_of_asc_node": 44.0024,
        "meta_arg_of_pericenter": 233.0917,
        "meta_mean_anomaly": 96.0359,
        "meta_ephemeris_type": 0,
        "meta_classification_type": "U",
        "meta_norad_cat_id": 45344,
        "meta_element_set_no": 999,
        "meta_rev_at_epoch": 2145,
        "meta_bstar": 0,
        "meta_mean_motion_dot": -1.18e-06,
        "meta_mean_motion_ddot": 0,
        "tle_line1": "1 45344U 20017A   25353.56858068 -.00000118  00000+0  00000+0 0  9993",
        "tle_line2": "2 45344   2.5096  44.0024 0002079 233.0917  96.0359  1.00273166 21451"
      },
      "geometry": {
        "type": "Point",
        "coordinates": [
          -71.57389487785828,
          -2.293773439098756
        ]
      }
    },
    {
      "type": "Feature",
      "properties": {
        "norad_id": 45807,
        "name": "BEIDOU-3 G3 (C61)",
        "group": "beidou",
        "lat": -1.938088341756806,
        "lon": -41.11771267744392,
        "alt_km": 35772.235676649,
        "timestamp": "2025-12-23T07:45:09.670065+00:00",
        "meta_object_name": "BEIDOU-3 G3 (C61)",
        "meta_object_id": "2020-040A",
        "meta_epoch": "2025-12-22T22:15:02.225376",
        "meta_mean_motion": 1.00269046,
        "meta_eccentricity": 0.00065459,
        "meta_inclination": 2.0143,
        "meta_ra_of_asc_node": 66.6672,
        "meta_arg_of_pericenter": 309.2145,
        "meta_mean_anomaly": 160.1609,
        "meta_ephemeris_type": 0,
        "meta_classification_type": "U",
        "meta_norad_cat_id": 45807,
        "meta_element_set_no": 999,
        "meta_rev_at_epoch": 2030,
        "meta_bstar": 0,
        "meta_mean_motion_dot": -3.33e-06,
        "meta_mean_motion_ddot": 0,
        "tle_line1": "1 45807U 20040A   25356.92710909 -.00000333  00000+0  00000+0 0  9996",
        "tle_line2": "2 45807   2.0143  66.6672 0006545 309.2145 160.1609  1.00269046 20309"
      },
      "geometry": {
        "type": "Point",
        "coordinates": [
          -41.11771267744392,
          -1.938088341756806
        ]
      }
    },
    {
      "type": "Feature",
      "properties": {
        "norad_id": 56564,
        "name": "BEIDOU-3 G4 (C62)",
        "group": "beidou",
        "lat": 0.7228495394280788,
        "lon": 8.442401666179085,
        "alt_km": 35796.708750531434,
        "timestamp": "2025-12-23T07:45:09.670092+00:00",
        "meta_object_name": "BEIDOU-3 G4 (C62)",
        "meta_object_id": "2023-066A",
        "meta_epoch": "2025-12-22T22:29:08.375136",
        "meta_mean_motion": 1.00271206,
        "meta_eccentricity": 0.00026513,
        "meta_inclination": 0.7938,
        "meta_ra_of_asc_node": 302.8252,
        "meta_arg_of_pericenter": 227.2007,
        "meta_mean_anomaly": 59.0519,
        "meta_ephemeris_type": 0,
        "meta_classification_type": "U",
        "meta_norad_cat_id": 56564,
        "meta_element_set_no": 999,
        "meta_rev_at_epoch": 962,
        "meta_bstar": 0,
        "meta_mean_motion_dot": -8.9e-07,
        "meta_mean_motion_ddot": 0,
        "tle_line1": "1 56564U 23066A   25356.93690249 -.00000089  00000+0  00000+0 0  9992",
        "tle_line2": "2 56564   0.7938 302.8252 0002651 227.2007  59.0519  1.00271206  9626"
      },
      "geometry": {
        "type": "Point",
        "coordinates": [
          8.442401666179085,
          0.7228495394280788
        ]
      }
    },
    {
      "type": "Feature",
      "properties": {
        "norad_id": 58654,
        "name": "BEIDOU-3 M28 (C50)",
        "group": "beidou",
        "lat": 54.855261655827555,
        "lon": 171.80425340316765,
        "alt_km": 21529.644770684677,
        "timestamp": "2025-12-23T07:45:09.670105+00:00",
        "meta_object_name": "BEIDOU-3 M28 (C50)",
        "meta_object_id": "2023-207A",
        "meta_epoch": "2025-12-22T15:21:59.092992",
        "meta_mean_motion": 1.86229743,
        "meta_eccentricity": 0.00028082,
        "meta_inclination": 55.5929,
        "meta_ra_of_asc_node": 68.2662,
        "meta_arg_of_pericenter": 274.2836,
        "meta_mean_anomaly": 85.7355,
        "meta_ephemeris_type": 0,
        "meta_classification_type": "U",
        "meta_norad_cat_id": 58654,
        "meta_element_set_no": 999,
        "meta_rev_at_epoch": 1355,
        "meta_bstar": 0,
        "meta_mean_motion_dot": -3e-07,
        "meta_mean_motion_ddot": 0,
        "tle_line1": "1 58654U 23207A   25356.64026728 -.00000030  00000+0  00000+0 0  9990",
        "tle_line2": "2 58654  55.5929  68.2662 0002808 274.2836  85.7355  1.86229743 13554"
      },
      "geometry": {
        "type": "Point",
        "coordinates": [
          171.80425340316765,
          54.855261655827555
        ]
      }
    }
  ]
}